NORAD_CAT_ID,OBJECT_NAME,OBJECT_TYPE,EPOCH,MEAN_MOTION,ECCENTRICITY,INCLINATION,RA_OF_ASC_NODE,ARG_OF_PERICENTER,MEAN_ANOMALY,BSTAR,MEAN_MOTION_DOT,MEAN_MOTION_DDOT,TLE_LINE0,TLE_LINE1,TLE_LINE2,SEMIMAJOR_AXIS,PERIOD,APOGEE,PERIGEE,DECAYED
54075.0,STARLINK-5212,PAYLOAD,2023-08-21 04:22:34,15.08844129,0.0001204,53.2158,200.4321,96.473,263.64,6.986e-05,8.24e-06,0.0,0 STARLINK-5212,1 54075U 22136AA  23233.18234542  .00000824  00000-0  69860-4 0  9994,2 54075  53.2158 200.4321 0001204  96.4730 263.6400 15.08844129 46772,6917.868,95.437,540.566,538.9,0.0
54075.0,STARLINK-5212,PAYLOAD,2023-08-22 04:13:22,15.08837897,0.0001499,53.2164,195.9714,105.1964,254.9194,2.4149e-06,-2.5e-06,0.0,0 STARLINK-5212,1 54075U 22136AA  23234.17595220 -.00000250  00000-0  24149-5 0  9993,2 54075  53.2164 195.9714 0001499 105.1964 254.9194 15.08837897 46920,6917.887,95.438,540.789,538.715,0.0
54075.0,STARLINK-5212,PAYLOAD,2023-08-23 02:28:45,15.08847829,0.0001096,53.2161,191.8112,103.9531,256.1583,6.1884e-05,6.97e-06,0.0,0 STARLINK-5212,1 54075U 22136AA  23235.10330054  .00000697  00000-0  61884-4 0  9999,2 54075  53.2161 191.8112 0001096 103.9531 256.1583 15.08847829 47061,6917.856,95.437,540.48,538.963,0.0
54075.0,STARLINK-5212,PAYLOAD,2023-08-23 07:14:55,15.08830296,0.0001336,53.2167,190.9177,98.7292,261.3851,-4.9994e-05,-1.083e-05,0.0,0 STARLINK-5212,1 54075U 22136AA  23235.30203504 -.00001083  00000-0 -49994-4 0  9990,2 54075  53.2167 190.9177 0001336  98.7292 261.3851 15.08830296 47099,6917.91,95.438,540.699,538.851,0.0
54075.0,STARLINK-5212,PAYLOAD,2023-08-24 21:24:11,15.08826017,0.00013,53.2174,183.7816,86.4723,273.6418,9.1257e-05,1.164e-05,0.0,0 STARLINK-5212,1 54075U 22136AA  23236.89179878  .00001164  00000-0  91257-4 0  9998,2 54075  53.2174 183.7816 0001300  86.4723 273.6418 15.08826017 46855,6917.923,95.438,540.687,538.889,0.0
54075.0,STARLINK-5212,PAYLOAD,2023-08-25 06:56:29,15.08834198,0.0001314,53.2175,181.9976,86.158,273.9563,0.00014924,2.088e-05,0.0,0 STARLINK-5212,1 54075U 22136AA  23237.28923501  .00002088  00000-0  14924-3 0  9993,2 54075  53.2175 181.9976 0001314  86.1580 273.9563 15.08834198 47399,6917.898,95.438,540.672,538.854,0.0
54075.0,STARLINK-5212,PAYLOAD,2023-08-25 19:39:35,15.08828222,0.0001531,53.2181,179.6191,81.3378,278.7787,6.6935e-05,7.77e-06,0.0,0 STARLINK-5212,1 54075U 22136AA  23237.81916607  .00000777  00000-0  66935-4 0  9994,2 54075  53.2181 179.6191 0001531  81.3378 278.7787 15.08828222 47473,6917.916,95.438,540.841,538.722,0.0
54075.0,STARLINK-5212,PAYLOAD,2023-08-26 06:47:17,15.08836937,0.0001517,53.2178,177.5376,82.4476,277.6688,5.3178e-05,5.58e-06,0.0,0 STARLINK-5212,1 54075U 22136AA  23238.28284335  .00000558  00000-0  53178-4 0  9994,2 54075  53.2178 177.5376 0001517  82.4476 277.6688 15.08836937 47544,6917.89,95.438,540.804,538.705,0.0
54075.0,STARLINK-5212,PAYLOAD,2023-08-27 05:02:41,15.08846052,0.0001561,53.2181,173.3741,82.2038,277.9132,0.00012959,1.775e-05,0.0,0 STARLINK-5212,1 54075U 22136AA  23239.21019697  .00001775  00000-0  12959-3 0  9998,2 54075  53.2181 173.3741 0001561  82.2038 277.9132 15.08846052 47680,6917.862,95.437,540.807,538.647,0.0
54075.0,STARLINK-5212,PAYLOAD,2023-08-28 01:42:42,15.08837845,0.0001526,53.217,169.5076,90.8364,269.2803,4.1791e-05,3.77e-06,0.0,0 STARLINK-5212,1 54075U 22136AA  23240.07132482  .00000377  00000-0  41791-4 0  9996,2 54075  53.2170 169.5076 0001526  90.8364 269.2803 15.08837845 47818,6917.887,95.438,540.808,538.696,0.0
54075.0,STARLINK-5212,PAYLOAD,2023-08-28 12:50:24,15.08841344,0.000151,53.2175,167.4257,90.7559,269.3606,4.9737e-05,5.04e-06,0.0,0 STARLINK-5212,1 54075U 22136AA  23240.53500193  .00000504  00000-0  49737-4 0  9995,2 54075  53.2175 167.4257 0001510  90.7559 269.3606 15.08841344 47405,6917.876,95.437,540.786,538.697,0.0
54075.0,STARLINK-5212,PAYLOAD,2023-08-29 01:33:28,15.08849826,0.0001595,53.2179,165.0446,97.3043,262.813,2.8136e-05,1.6e-06,0.0,0 STARLINK-5212,1 54075U 22136AA  23241.06491583  .00000160  00000-0  28136-4 0  9994,2 54075  53.2179 165.0446 0001595  97.3043 262.8130 15.08849826 47961,6917.85,95.437,540.819,538.612,0.0
54075.0,STARLINK-5212,PAYLOAD,2023-08-29 04:44:14,15.08850001,0.0001582,53.2179,164.4504,103.1999,256.917,1.3384e-05,-7.5e-07,0.0,0 STARLINK-5212,1 54075U 22136AA  23241.19739545 -.00000075  00000-0  13384-4 0  9996,2 54075  53.2179 164.4504 0001582 103.1999 256.9170 15.08850001 47506,6917.85,95.437,540.809,538.62,0.0
54075.0,STARLINK-5212,PAYLOAD,2023-08-30 01:24:16,15.08834783,0.0001519,53.2168,160.586,95.5416,264.575,1.2758e-05,-8.5e-07,0.0,0 STARLINK-5212,1 54075U 22136AA  23242.05852684 -.00000085  00000-0  12758-4 0  9997,2 54075  53.2168 160.5860 0001519  95.5416 264.5750 15.08834783 48110,6917.896,95.438,540.812,538.711,0.0
54075.0,STARLINK-5212,PAYLOAD,2023-08-30 04:35:02,15.08834862,0.0001513,53.2168,159.9911,95.8049,264.3115,1.9126e-05,1.6e-07,0.0,0 STARLINK-5212,1 54075U 22136AA  23242.19100683  .00000016  00000-0  19126-4 0  9996,2 54075  53.2168 159.9911 0001513  95.8049 264.3115 15.08834862 47657,6917.896,95.438,540.808,538.714,0.0
54075.0,STARLINK-5212,PAYLOAD,2023-08-31 01:15:03,15.08842683,0.0001415,53.217,156.1266,86.8791,273.2363,5.3675e-05,5.66e-06,0.0,0 STARLINK-5212,1 54075U 22136AA  23243.05212150  .00000566  00000-0  53675-4 0  9992,2 54075  53.2170 156.1266 0001415  86.8791 273.2363 15.08842683 48269,6917.872,95.437,540.716,538.758,0.0
54075.0,STARLINK-5212,PAYLOAD,2023-08-31 02:50:26,15.08846736,0.0001361,53.2169,155.8296,82.353,277.7616,1.5285e-05,-4.5e-07,0.0,0 STARLINK-5212,1 54075U 22136AA  23243.11836031 -.00000045  00000-0  15285-4 0  9997,2 54075  53.2169 155.8296 0001361  82.3530 277.7616 15.08846736 47798,6917.86,95.437,540.666,538.783,0.0
54075.0,STARLINK-5212,PAYLOAD,2023-09-01 02:41:14,15.08834518,0.0001498,53.2169,151.3711,86.8107,273.3056,2.7868e-05,1.56e-06,0.0,0 STARLINK-5212,1 54075U 22136AA  23244.11197010  .00000156  00000-0  27868-4 0  9997,2 54075  53.2169 151.3711 0001498  86.8107 273.3056 15.08834518 48427,6917.897,95.438,540.798,538.726,0.0
54075.0,STARLINK-5212,PAYLOAD,2023-09-01 10:38:09,15.08837652,0.0001517,53.2169,149.8836,85.4193,274.6972,3.8699e-05,3.28e-06,0.0,0 STARLINK-5212,1 54075U 22136AA  23244.44316864  .00000328  00000-0  38699-4 0  9998,2 54075  53.2169 149.8836 0001517  85.4193 274.6972 15.08837652 47993,6917.888,95.438,540.802,538.703,0.0
54075.0,STARLINK-5212,PAYLOAD,2023-09-02 02:32:00,15.08841033,0.0001558,53.2172,146.9096,86.673,273.4441,8.7387e-05,1.103e-05,0.0,0 STARLINK-5212,1 54075U 22136AA  23245.10556501  .00001103  00000-0  87387-4 0  9996,2 54075  53.2172 146.9096 0001558  86.6730 273.4441 15.08841033 48579,6917.877,95.437,540.82,538.664,0.0
54075.0,STARLINK-5212,PAYLOAD,2023-09-02 10:28:56,15.0884758,0.0001322,53.2179,145.4222,81.978,278.1362,-6.2378e-05,-1.281e-05,0.0,0 STARLINK-5212,1 54075U 22136AA  23245.43676431 -.00001281  00000-0 -62378-4 0  9999,2 54075  53.2179 145.4222 0001322  81.9780 278.1362 15.08847580 48143,6917.857,95.437,540.637,538.808,0.0
54075.0,STARLINK-5212,PAYLOAD,2023-09-02 16:50:29,15.08816138,0.0001719,53.2146,144.2335,82.6529,277.4659,0.00032124,4.825e-05,0.0,0 STARLINK-5212,1 54075U 22136AA  23245.70172898  .00004825  00000-0  32124-3 0  9997,2 54075  53.2146 144.2335 0001719  82.6529 277.4659 15.08816138 48661,6917.953,95.439,541.008,538.629,0.0
54075.0,STARLINK-5212,PAYLOAD,2023-09-03 02:22:47,15.08843377,0.0001195,53.217,142.4485,85.0975,275.0154,7.0812e-05,8.39e-06,0.0,0 STARLINK-5212,1 54075U 22136AA  23246.09916506  .00000839  00000-0  70812-4 0  9990,2 54075  53.2170 142.4485 0001195  85.0975 275.0154 15.08843377 48720,6917.87,95.437,540.562,538.908,0.0
54075.0,STARLINK-5212,PAYLOAD,2023-09-03 10:19:44,15.08837057,0.0001282,53.2171,140.9621,87.9703,272.1436,3.6667e-05,2.96e-06,0.0,0 STARLINK-5212,1 54075U 22136AA  23246.43037128  .00000296  00000-0  36667-4 0  9999,2 54075  53.2171 140.9621 0001282  87.9703 272.1436 15.08837057 48777,6917.889,95.438,540.641,538.868,0.0
54075.0,STARLINK-5212,PAYLOAD,2023-09-04 10:10:31,15.08840562,0.0001684,53.2159,136.5024,82.7299,277.3885,6.7839e-05,7.92e-06,0.0,0 STARLINK-5212,1 54075U 22136AA  23247.42397201  .00000792  00000-0  67839-4 0  9996,2 54075  53.2159 136.5024 0001684  82.7299 277.3885 15.08840562 48444,6917.879,95.438,540.909,538.579,0.0
54075.0,STARLINK-5212,PAYLOAD,2023-09-05 02:04:21,15.0884733,0.0001338,53.2165,133.5277,86.8583,273.2562,8.6224e-05,1.085e-05,0.0,0 STARLINK-5212,1 54075U 22136AA  23248.08636546  .00001085  00000-0  86224-4 0  9992,2 54075  53.2165 133.5277 0001338  86.8583 273.2562 15.08847330 49027,6917.858,95.437,540.649,538.797,0.0
54075.0,STARLINK-5212,PAYLOAD,2023-09-06 01:55:09,15.0884105,0.0001656,53.2165,129.0667,88.8061,271.3121,5.8973e-05,6.51e-06,0.0,0 STARLINK-5212,1 54075U 22136AA  23249.07997059  .00000651  00000-0  58973-4 0  9999,2 54075  53.2165 129.0667 0001656  88.8061 271.3121 15.08841050 49175,6917.877,95.437,540.888,538.597,0.0
54075.0,STARLINK-5212,PAYLOAD,2023-09-07 01:45:55,15.08847103,0.0001596,53.2174,124.6047,91.6672,268.4503,1.0803e-05,-1.16e-06,0.0,0 STARLINK-5212,1 54075U 22136AA  23250.07356473 -.00000116  00000-0  10803-4 0  9997,2 54075  53.2174 124.6047 0001596  91.6672 268.4503 15.08847103 48840,6917.859,95.437,540.828,538.62,0.0
54075.0,STARLINK-5212,PAYLOAD,2023-09-08 01:36:43,15.08837172,0.0001577,53.218,120.1452,90.9049,269.2123,-3.4381e-05,-8.35e-06,0.0,0 STARLINK-5212,1 54075U 22136AA  23251.06717207 -.00000835  00000-0 -34381-4 0  9999,2 54075  53.2180 120.1452 0001577  90.9049 269.2123 15.08837172 49479,6917.889,95.438,540.845,538.663,0.0
54075.0,STARLINK-5212,PAYLOAD,2023-09-08 22:16:44,15.08849781,0.000102,53.2159,116.2793,89.8335,270.2774,-0.00016835,-2.967e-05,0.0,0 STARLINK-5212,1 54075U 22136AA  23251.92829185 -.00002967  00000-0 -16835-3 0  9994,2 54075  53.2159 116.2793 0001020  89.8335 270.2774 15.08849781 49122,6917.85,95.437,540.421,539.01,0.0
